{
  "type": "FeatureCollection",
  "features": [
    {
      "type": "Feature",
      "properties": {
        "norad_id": 48859,
        "name": "GPS BIII-5  (PRN 11)",
        "group": "gnss",
        "lat": -36.953643969500796,
        "lon": -168.54789053352195,
        "alt_km": 20122.442202450857,
        "timestamp": "2025-12-11T20:41:15.325228+00:00",
        "meta_object_name": "GPS BIII-5  (PRN 11)",
        "meta_object_id": "2021-054A",
        "meta_epoch": "2025-12-08T04:14:32.423424",
        "meta_mean_motion": 2.00553627,
        "meta_eccentricity": 0.0024678,
        "meta_inclination": 55.2581,
        "meta_ra_of_asc_node": 340.1367,
        "meta_arg_of_pericenter": 233.3994,
        "meta_mean_anomaly": 212.8593,
        "meta_ephemeris_type": 0,
        "meta_classification_type": "U",
        "meta_norad_cat_id": 48859,
        "meta_element_set_no": 999,
        "meta_rev_at_epoch": 3292,
        "meta_bstar": 0,
        "meta_mean_motion_dot": -8.6e-07,
        "meta_mean_motion_ddot": 0,
        "tle_line1": "1 48859U 21054A   25342.17676416 -.00000086  00000+0  00000+0 0  9993",
        "tle_line2": "2 48859  55.2581 340.1367 0024678 233.3994 212.8593  2.00553627 32922"
      },
      "geometry": {
        "type": "Point",
        "coordinates": [
          -168.54789053352195,
          -36.953643969500796
        ]
      }
    },
    {
      "type": "Feature",
      "properties": {
        "norad_id": 49336,
        "name": "QZS-1R (QZSS/PRN 196)",
        "group": "gnss",
        "lat": 36.91451000348862,
        "lon": 165.7061165369026,
        "alt_km": 38934.71182046038,
        "timestamp": "2025-12-11T20:41:15.325241+00:00",
        "meta_object_name": "QZS-1R (QZSS/PRN 196)",
        "meta_object_id": "2021-096A",
        "meta_epoch": "2025-12-11T14:11:56.112288",
        "meta_mean_motion": 1.00257955,
        "meta_eccentricity": 0.0755122,
        "meta_inclination": 37.0772,
        "meta_ra_of_asc_node": 82.3759,
        "meta_arg_of_pericenter": 271.3113,
        "meta_mean_anomaly": 74.6905,
        "meta_ephemeris_type": 0,
        "meta_classification_type": "U",
        "meta_norad_cat_id": 49336,
        "meta_element_set_no": 999,
        "meta_rev_at_epoch": 1512,
        "meta_bstar": 0,
        "meta_mean_motion_dot": -2.7e-06,
        "meta_mean_motion_ddot": 0,
        "tle_line1": "1 49336U 21096A   25345.59162167 -.00000270  00000+0  00000+0 0  9997",
        "tle_line2": "2 49336  37.0772  82.3759 0755122 271.3113  74.6905  1.00257955 15121"
      },
      "geometry": {
        "type": "Point",
        "coordinates": [
          165.7061165369026,
          36.91451000348862
        ]
      }
    },
    {
      "type": "Feature",
      "properties": {
        "norad_id": 49809,
        "name": "GSAT0223 (GALILEO 27)",
        "group": "gnss",
        "lat": -4.73489964562119,
        "lon": -16.324910812749714,
        "alt_km": 23225.9177753504,
        "timestamp": "2025-12-11T20:41:15.325253+00:00",
        "meta_object_name": "GSAT0223 (GALILEO 27)",
        "meta_object_id": "2021-116A",
        "meta_epoch": "2025-12-10T02:39:25.687008",
        "meta_mean_motion": 1.70475768,
        "meta_eccentricity": 0.000463,
        "meta_inclination": 57.2198,
        "meta_ra_of_asc_node": 346.7831,
        "meta_arg_of_pericenter": 251.6037,
        "meta_mean_anomaly": 107.9349,
        "meta_ephemeris_type": 0,
        "meta_classification_type": "U",
        "meta_norad_cat_id": 49809,
        "meta_element_set_no": 999,
        "meta_rev_at_epoch": 2495,
        "meta_bstar": 0,
        "meta_mean_motion_dot": -8.7e-07,
        "meta_mean_motion_ddot": 0,
        "tle_line1": "1 49809U 21116A   25344.11071397 -.00000087  00000+0  00000+0 0  9992",
        "tle_line2": "2 49809  57.2198 346.7831 0004630 251.6037 107.9349  1.70475768 24951"
      },
      "geometry": {
        "type": "Point",
        "coordinates": [
          -16.324910812749714,
          -4.73489964562119
        ]
      }
    },
    {
      "type": "Feature",
      "properties": {
        "norad_id": 49810,
        "name": "GSAT0224 (GALILEO 28)",
        "group": "gnss",
        "lat": 53.535929694177,
        "lon": 106.04264223303419,
        "alt_km": 23225.81705666059,
        "timestamp": "2025-12-11T20:41:15.325263+00:00",
        "meta_object_name": "GSAT0224 (GALILEO 28)",
        "meta_object_id": "2021-116B",
        "meta_epoch": "2025-12-10T19:26:19.690368",
        "meta_mean_motion": 1.70475895,
        "meta_eccentricity": 0.000393,
        "meta_inclination": 57.2205,
        "meta_ra_of_asc_node": 346.7629,
        "meta_arg_of_pericenter": 256.2791,
        "meta_mean_anomaly": 284.9883,
        "meta_ephemeris_type": 0,
        "meta_classification_type": "U",
        "meta_norad_cat_id": 49810,
        "meta_element_set_no": 999,
        "meta_rev_at_epoch": 2499,
        "meta_bstar": 0,
        "meta_mean_motion_dot": -8.7e-07,
        "meta_mean_motion_ddot": 0,
        "tle_line1": "1 49810U 21116B   25344.80995012 -.00000087  00000+0  00000+0 0  9999",
        "tle_line2": "2 49810  57.2205 346.7629 0003930 256.2791 284.9883  1.70475895 24991"
      },
      "geometry": {
        "type": "Point",
        "coordinates": [
          106.04264223303419,
          53.535929694177
        ]
      }
    },
    {
      "type": "Feature",
      "properties": {
        "norad_id": 52984,
        "name": "COSMOS 2557 (706K)",
        "group": "gnss",
        "lat": -8.224674002707895,
        "lon": -42.898430890555076,
        "alt_km": 19121.81489266709,
        "timestamp": "2025-12-11T20:41:15.325274+00:00",
        "meta_object_name": "COSMOS 2557 (706K)",
        "meta_object_id": "2022-075A",
        "meta_epoch": "2025-12-07T04:21:00.419904",
        "meta_mean_motion": 2.13101754,
        "meta_eccentricity": 0.00137049,
        "meta_inclination": 64.4129,
        "meta_ra_of_asc_node": 321.247,
        "meta_arg_of_pericenter": 276.9,
        "meta_mean_anomaly": 82.939,
        "meta_ephemeris_type": 0,
        "meta_classification_type": "U",
        "meta_norad_cat_id": 52984,
        "meta_element_set_no": 999,
        "meta_rev_at_epoch": 2662,
        "meta_bstar": 0,
        "meta_mean_motion_dot": -5.2e-07,
        "meta_mean_motion_ddot": 0,
        "tle_line1": "1 52984U 22075A   25341.18125486 -.00000052  00000+0  00000+0 0  9990",
        "tle_line2": "2 52984  64.4129 321.2470 0013704 276.9000  82.9390  2.13101754 26625"
      },
      "geometry": {
        "type": "Point",
        "coordinates": [
          -42.898430890555076,
          -8.224674002707895
        ]
      }
    },
    {
      "type": "Feature",
      "properties": {
        "norad_id": 54031,
        "name": "COSMOS 2559 (707K)",
        "group": "gnss",
        "lat": 44.083965087753974,
        "lon": 113.47846427166392,
        "alt_km": 19111.140241256868,
        "timestamp": "2025-12-11T20:41:15.325287+00:00",
        "meta_object_name": "COSMOS 2559 (707K)",
        "meta_object_id": "2022-130A",
        "meta_epoch": "2025-12-11T05:22:14.904768",
        "meta_mean_motion": 2.13101319,
        "meta_eccentricity": 0.00118383,
        "meta_inclination": 64.3831,
        "meta_ra_of_asc_node": 321.1944,
        "meta_arg_of_pericenter": 192.4959,
        "meta_mean_anomaly": 167.4748,
        "meta_ephemeris_type": 0,
        "meta_classification_type": "U",
        "meta_norad_cat_id": 54031,
        "meta_element_set_no": 999,
        "meta_rev_at_epoch": 2468,
        "meta_bstar": 0,
        "meta_mean_motion_dot": -5.5e-07,
        "meta_mean_motion_ddot": 0,
        "tle_line1": "1 54031U 22130A   25345.22378362 -.00000055  00000+0  00000+0 0  9992",
        "tle_line2": "2 54031  64.3831 321.1944 0011838 192.4959 167.4748  2.13101319 24682"
      },
      "geometry": {
        "type": "Point",
        "coordinates": [
          113.47846427166392,
          44.083965087753974
        ]
      }
    },
    {
      "type": "Feature",
      "properties": {
        "norad_id": 54377,
        "name": "COSMOS 2564 (761)",
        "group": "gnss",
        "lat": -57.701389605504566,
        "lon": 67.25570243872936,
        "alt_km": 19120.367650887205,
        "timestamp": "2025-12-11T20:41:15.325298+00:00",
        "meta_object_name": "COSMOS 2564 (761)",
        "meta_object_id": "2022-161A",
        "meta_epoch": "2025-12-11T12:53:38.736096",
        "meta_mean_motion": 2.13102051,
        "meta_eccentricity": 0.00086147,
        "meta_inclination": 64.7381,
        "meta_ra_of_asc_node": 198.9389,
        "meta_arg_of_pericenter": 204.933,
        "meta_mean_anomaly": 155.0953,
        "meta_ephemeris_type": 0,
        "meta_classification_type": "U",
        "meta_norad_cat_id": 54377,
        "meta_element_set_no": 999,
        "meta_rev_at_epoch": 2363,
        "meta_bstar": 0,
        "meta_mean_motion_dot": 5.6e-07,
        "meta_mean_motion_ddot": 0,
        "tle_line1": "1 54377U 22161A   25345.53725389  .00000056  00000+0  00000+0 0  9998",
        "tle_line2": "2 54377  64.7381 198.9389 0008614 204.9330 155.0953  2.13102051 23631"
      },
      "geometry": {
        "type": "Point",
        "coordinates": [
          67.25570243872936,
          -57.701389605504566
        ]
      }
    }
  ]
}